{"type":"FeatureCollection","crs":{"type":"EPSG","properties":{"code":23030}},"properties":{"title":"Equipamientos de la ciudad","icon":"https://www.zaragoza.es/contenidos/iconos/participacionCiudadana.png","link":"http://www.zaragoza.es/sede/servicio/equipamiento/","description":"Equipamientos de la ciudad de Zaragoza"},"features":[{"type":"Feature","geometry":{"type":"Point","coordinates":[678175.210001769,4612188.289997667]},"properties":{"id":"2692","title":"Campo Municipal de Fútbol Torre Ramona-Joaquín González","tipoEquipamiento":["atencion-al-ciudadano","campos-de-futbol"],"email":"santodomingojuventud@gmail.com","telephone":"976 596721","url":"http://www.santodomingojuventud.com","titularidadPublica":"true","streetAddress":"C/ Fray Luís Urbano, 81","postalCode":"50002","portalId":"25341","latitud":41.639674176652456,"longitud":-0.86196921331345,"distritoId":"Las Fuentes","description":"<p>Entidad gestora: C. F. Santo Domingo Juventud.</p>","creationDate":"2012-05-24T02:00:00Z","lastUpdated":"2021-03-23T08:36:49Z"}},{"type":"Feature","geometry":{"type":"Point","coordinates":[669127.8800013452,4619362.499998276]},"properties":{"id":"2828","title":"Campo Municipal de Fútbol La Manzanera","tipoEquipamiento":["campos-de-futbol"],"email":"atmonzalbarba@gmail.com","telephone":"976788727","url":"http://atmonzalbarba.futbolaragon.com","titularidadPublica":"true","streetAddress":"Camino de La Mejana, 22","postalCode":"50120","portalId":"37376","latitud":41.70622266777617,"longitud":-0.9685006821846398,"distritoId":"Monzalbarba","description":"<p>Entidad gestora: C. A. Monzalbarba.</p>","creationDate":"2012-05-24T02:00:00Z","lastUpdated":"2021-03-23T08:36:49Z"}},{"type":"Feature","geometry":{"type":"Point","coordinates":[673981.6600015596,4611907.519997977]},"properties":{"id":"2835","title":"Campo Municipal de Fútbol García Traid","tipoEquipamiento":["campos-de-futbol"],"email":"cfhernancortes@gmail.com","telephone":"976 754593","url":"http://www.cfhernancortesjunquera.com","titularidadPublica":"true","streetAddress":"Andador Teniente General Gutierrez Mellado, 40","postalCode":"50009","portalId":"21943","latitud":41.638072791795445,"longitud":-0.9123697620062843,"distritoId":"Universidad","description":"<p>Entidad gestora: Hern&aacute;n Cort&eacute;s C.F.</p>","creationDate":"2012-05-24T02:00:00Z","lastUpdated":"2021-03-23T08:36:49Z"}},{"type":"Feature","geometry":{"type":"Point","coordinates":[675450.9100016315,4614530.869997866]},"properties":{"id":"2823","title":"Campo Municipal de Fútbol La Almozara-El Carmen","tipoEquipamiento":["campos-de-futbol"],"email":"fezquerra@zaragoza.es","telephone":"976285826","url":"http://www.cdebro.com/","titularidadPublica":"true","streetAddress":"C/ Sierra de Vicor, 6","postalCode":"50003","portalId":"28454","latitud":41.661363947212685,"longitud":-0.8939708401299371,"distritoId":"La Almozara","description":"<p>Entidad gestora: Club Deportivo Ebro.</p>","creationDate":"2013-05-10T02:00:00Z","lastUpdated":"2021-03-23T08:36:49Z"}},{"type":"Feature","geometry":{"type":"Point","coordinates":[683971.1000021019,4626239.039997119]},"properties":{"id":"2830","title":"Campo Municipal de Fútbol Enrique Escuer","tipoEquipamiento":["campos-de-futbol"],"email":"adpenaflor_zgz@hotmail.com","titularidadPublica":"true","streetAddress":"C/ San Cristóbal, 121","postalCode":"50193","portalId":"28432","latitud":41.76482050656641,"longitud":-0.7880938553710496,"distritoId":"Peñaflor","description":"<p>Entidad gestora: A. D. Pe&ntilde;aflor.</p>","creationDate":"2012-05-24T02:00:00Z","lastUpdated":"2021-03-23T08:36:49Z"}},{"type":"Feature","geometry":{"type":"Point","coordinates":[677982.5000017588,4611327.499997687]},"properties":{"id":"2838","title":"Campo Municipal de Fútbol Nuevo Fleta","tipoEquipamiento":["campos-de-futbol"],"email":"info@cdfleta.com","telephone":"666 423752","url":"http://www.actiweb.es/cdfleta/","titularidadPublica":"true","streetAddress":"Recinto Ferial Avda. Cesáreo Alierta, s/n","postalCode":"50008","portalId":"29708","latitud":41.63196929188926,"longitud":-0.8645375127339853,"distritoId":"San José","description":"<p>Entidad gestora: A. D. Fleta.</p>","creationDate":"2012-05-24T02:00:00Z","lastUpdated":"2021-03-23T08:36:49Z"}},{"type":"Feature","geometry":{"type":"Point","coordinates":[672291.7500014817,4613682.499998088]},"properties":{"id":"3027","title":"Campo Municipal de Fútbol La Nueva Camisera","tipoEquipamiento":["campos-de-futbol"],"email":"cdoliver@cdoliver.com","telephone":"976324533","url":"http://www.cdoliver.es","titularidadPublica":"true","streetAddress":"Carrera de la Camisera, s/n","postalCode":"50011","portalId":"30933","latitud":41.65441676739704,"longitud":-0.9321357795488421,"distritoId":"Oliver-Valdefierro","description":"<p>Entidad gestora: C. D. Oliver</p>","creationDate":"2012-05-24T02:00:00Z","lastUpdated":"2021-03-23T08:36:49Z"}},{"type":"Feature","geometry":{"type":"Point","coordinates":[678685.5600017967,4613764.9999976205]},"properties":{"id":"6485","title":"Campo Municipal de Fútbol El Rabal","tipoEquipamiento":["campos-de-futbol"],"email":"cdunion@hotmail.es","telephone":"976205060","url":"http://www.unioncd.es","titularidadPublica":"true","streetAddress":"C/ Jesús Burriel, 21","postalCode":"50014","portalId":"4536","latitud":41.65375175129296,"longitud":-0.8553745987652197,"distritoId":"El Rabal","description":"<p>&nbsp;Entidad gestora: C.D. Uni&oacute;n La Jota-Vadorrey</p>","creationDate":"2012-05-24T02:00:00Z","lastUpdated":"2021-03-23T08:36:49Z"}},{"type":"Feature","geometry":{"type":"Point","coordinates":[663633.7500011302,4620506.499998582]},"properties":{"id":"6505","title":"Campo Municipal de Fútbol San Miguel","tipoEquipamiento":["campos-de-futbol"],"email":"udcasetas@telefonica.net","telephone":"976774778","url":"http://www.udcasetas.com","titularidadPublica":"true","streetAddress":"Camino Molino del Rey, s/n","postalCode":"50620","portalId":"30750","latitud":41.7176694367734,"longitud":-1.0341842219854107,"distritoId":"Casetas","description":"<p>&nbsp;Entidad Gestora: Uni&oacute;n Deportiva Casetas</p>","creationDate":"2012-05-24T02:00:00Z","lastUpdated":"2021-03-23T08:36:49Z"}},{"type":"Feature","geometry":{"type":"Point","coordinates":[673152.6300015204,4611218.999998036]},"properties":{"id":"28746","title":"Campo Municipal de Fútbol Mudéjar","tipoEquipamiento":["campos-de-futbol"],"titularidadPublica":"true","streetAddress":"Avda. Gómez Laguna, s/n","postalCode":"50001","portalId":"28353","latitud":41.63205563467759,"longitud":-0.9225164908861413,"description":"<p>Pendiente de cesión</p>\n","creationDate":"2020-02-21T03:00:00Z","lastUpdated":"2021-03-23T08:36:49Z"}},{"type":"Feature","geometry":{"type":"Point","coordinates":[675395.5000016289,4615169.999997866]},"properties":{"id":"2842","title":"Campo Municipal de Fútbol Ranillas","tipoEquipamiento":["campos-de-futbol"],"email":"cdsanandres@hotmail.es","titularidadPublica":"true","streetAddress":"C/ Clara Campoamor, 34","postalCode":"50018","portalId":"19512","latitud":41.667128996752304,"longitud":-0.8944483433437014,"distritoId":"Actur - Rey Fernando","description":"<p>Entidad gestora: A.D.A.F.S. Andr&eacute;s.</p>","creationDate":"2012-05-24T02:00:00Z","lastUpdated":"2021-03-23T08:36:49Z"}},{"type":"Feature","geometry":{"type":"Point","coordinates":[663894.0000011388,4616977.999998575]},"properties":{"id":"2832","title":"Campo Municipal de Fútbol San Lorenzo","tipoEquipamiento":["campos-de-futbol"],"telephone":"658357888","url":"http://cdgarrapinillos.com/","titularidadPublica":"true","streetAddress":"Camino Puente Clavería, 32","postalCode":"50190","portalId":"7993","latitud":41.68585299152156,"longitud":-1.032026880635577,"distritoId":"Garrapinillos","description":"<p>Entidad gestora: Club Deportivo Garrapinillos.</p>","creationDate":"2012-05-24T02:00:00Z","lastUpdated":"2021-03-23T08:36:49Z"}},{"type":"Feature","geometry":{"type":"Point","coordinates":[680768.6100019112,4615658.199997442]},"properties":{"id":"2833","title":"Campo Municipal de Fútbol César Láinez","tipoEquipamiento":["campos-de-futbol"],"email":"secretaria@rsdsantaisabel.es","telephone":"976 57 22 04","url":"http://www.rsdsantaisabel.es","titularidadPublica":"true","streetAddress":"C/ La Iglesia, 34","postalCode":"50016","portalId":"19578","latitud":41.67032217581934,"longitud":-0.829802810731965,"distritoId":"Santa Isabel","description":"<p>Entidad gestora: R.S.D. Sta. Isabel.</p>","creationDate":"2012-05-24T02:00:00Z","lastUpdated":"2021-03-23T08:36:49Z"}},{"type":"Feature","geometry":{"type":"Point","coordinates":[682543.2500020114,4612476.999997302]},"properties":{"id":"2834","title":"Campo Municipal de Fútbol Santa Engracia","tipoEquipamiento":["campos-de-futbol"],"email":"dvdasensi@hotmail.com","url":"http://cdmovera.blogspot.com.es/","titularidadPublica":"true","streetAddress":"Avda. de Movera, 600 dplo","postalCode":"50194","portalId":"35486","latitud":41.641284863718276,"longitud":-0.809471097990109,"distritoId":"Movera","description":"<p>Entidad gestora: Club Deportivo Movera.</p>","creationDate":"2012-05-24T02:00:00Z","lastUpdated":"2021-03-23T08:36:49Z"}},{"type":"Feature","geometry":{"type":"Point","coordinates":[676198.2500016671,4610476.499997825]},"properties":{"id":"2843","title":"Campo Municipal de Fútbol Torrero","tipoEquipamiento":["campos-de-futbol"],"email":"cdginertorrero@gmail.com","telephone":"976 382147","titularidadPublica":"true","streetAddress":"Avda. América, 123","postalCode":"50007","portalId":"26199","latitud":41.624705475378704,"longitud":-0.8861946019132702,"distritoId":"Torrero","description":"<p>Entidad gestora: C. D. Giner - Torrero.</p>","creationDate":"2012-05-24T02:00:00Z","lastUpdated":"2021-03-23T08:36:49Z"}},{"type":"Feature","geometry":{"type":"Point","coordinates":[671645.0900014527,4614371.499998129]},"properties":{"id":"2829","title":"Campo Municipal de Fútbol Miralbueno","tipoEquipamiento":["campos-de-futbol"],"email":"cdm@cdmiralbueno.com","telephone":"976489772","url":"http://www.cfmiralbueno.com/pnfg/","titularidadPublica":"true","streetAddress":"C/ Manuel Calvo, 7","postalCode":"50011","portalId":"28303","latitud":41.66075819134195,"longitud":-0.9396992593467999,"distritoId":"Miralbueno","description":"<p>Entidad gestora: Centro Deportivo Miralbueno.</p>","creationDate":"2012-05-24T02:00:00Z","lastUpdated":"2021-03-23T08:36:49Z"}},{"type":"Feature","geometry":{"type":"Point","coordinates":[672818.7400015055,4613123.079998054]},"properties":{"id":"2840","title":"Campo Municipal de Fútbol Parque Oliver","tipoEquipamiento":["campos-de-futbol"],"email":"at.escalerillas@hotmail.es","telephone":"976 311212","url":"http://www.atleticoescalerillas.es/","titularidadPublica":"true","streetAddress":"C/ Reina Petronila, s/n","postalCode":"50011","portalId":"28396","latitud":41.64926720515876,"longitud":-0.9259724814493546,"distritoId":"Oliver-Valdefierro","description":"<p>Entidad gestora: Atco. Escalerillas.</p>","creationDate":"2008-01-10T01:00:00Z","lastUpdated":"2021-03-23T08:36:49Z"}},{"type":"Feature","geometry":{"type":"Point","coordinates":[677347.7500017254,4610537.499997737]},"properties":{"id":"2837","title":"Campo Municipal de Fútbol J. L. Violeta","tipoEquipamiento":["campos-de-futbol"],"email":"udmontecarlo@udmontecarlo.es","telephone":"699878384","url":"http://www.udmontecarlo.es","titularidadPublica":"true","streetAddress":"C/ Teniente Coronel León Moyano, 55","postalCode":"50007","portalId":"21408","latitud":41.624999875780176,"longitud":-0.8723869324566038,"distritoId":"Torrero","description":"<p>Entidad gestora: U. D. Montecarlo.</p>","creationDate":"2013-03-01T01:00:00Z","lastUpdated":"2021-03-23T08:36:49Z"}},{"type":"Feature","geometry":{"type":"Point","coordinates":[677650.3300017437,4618162.799997692]},"properties":{"id":"2831","title":"Campo Municipal de Fútbol San Gregorio","tipoEquipamiento":["campos-de-futbol"],"email":"udlosmolinos@hotmail.com","telephone":"976 525252","titularidadPublica":"true","streetAddress":"C/ Cristo Rey, 8","postalCode":"50015","portalId":"31620","latitud":41.69356726658765,"longitud":-0.8664908446601148,"distritoId":"San Gregorio","description":"<p>Entidad gestora: U. D. Los Molinos.</p>","creationDate":"2012-05-24T02:00:00Z","lastUpdated":"2021-03-23T08:36:49Z"}},{"type":"Feature","geometry":{"type":"Point","coordinates":[681327.6300019398,4608435.499997421]},"properties":{"id":"2827","title":"Campo Municipal de Fútbol Mariano Estrada Fortún (La Cartuja Baja)","tipoEquipamiento":["campos-de-futbol"],"email":"lacartujafutbol@hotmail.com","telephone":"976 454935","titularidadPublica":"true","streetAddress":"C/ Autonomía de Aragón, 24","postalCode":"50720","portalId":"16311","latitud":41.60518580244909,"longitud":-0.8252807935825782,"distritoId":"La Cartuja Baja","description":"<p>Entidad gestora: La Cartuja Focar Club.</p>","creationDate":"2012-09-12T02:00:00Z","lastUpdated":"2021-03-23T08:36:49Z"}},{"type":"Feature","geometry":{"type":"Point","coordinates":[674863.4400016018,4611751.499997913]},"properties":{"id":"2822","title":"Estadio de Fútbol La Romareda","tipoEquipamiento":["campos-de-futbol","espacios-musicales"],"telephone":"976 567777","url":"http://www.realzaragoza.com/","titularidadPublica":"true","streetAddress":"C/ Eduardo Ibarra, 6","postalCode":"50009","portalId":"4365","latitud":41.636475598878995,"longitud":-0.9018349860911158,"distritoId":"Universidad","description":"<p>Entidad gestora: Real Zaragoza S.A.D.</p>","creationDate":"2008-01-10T01:00:00Z","lastUpdated":"2021-03-23T08:36:49Z"}},{"type":"Feature","geometry":{"type":"Point","coordinates":[673003.0600015138,4611677.499998043]},"properties":{"id":"2845","title":"Campo Municipal de Fútbol Valdefierro","tipoEquipamiento":["campos-de-futbol"],"email":"cdvaldefierro@gmail.com","telephone":"976 753688","titularidadPublica":"true","streetAddress":"C/ Campillo de Llerena, 1","postalCode":"50012","portalId":"28453","latitud":41.63621517330294,"longitud":-0.9241784823996129,"distritoId":"Oliver-Valdefierro","description":"<p>Entidad gestora: C. D. Valdefierro.</p>","creationDate":"2012-05-24T02:00:00Z","lastUpdated":"2021-03-23T08:36:49Z"}},{"type":"Feature","geometry":{"type":"Point","coordinates":[677584.9400017392,4615079.499997704]},"properties":{"id":"3026","title":"Campo Municipal de Fútbol La Azucarera","tipoEquipamiento":["campos-de-futbol"],"email":"sangregorioarrabal@yahoo.es","telephone":"976 472554","url":"http://www.sangregorioarrabal.com","titularidadPublica":"true","streetAddress":"C/ Marqués de La Cadena, 72","postalCode":"50014","portalId":"30837","latitud":41.6658294240246,"longitud":-0.8681931204828386,"distritoId":"El Rabal","description":"<p>Entidad Gestora: C. D. San Gregorio Arrabal</p>","creationDate":"2012-05-24T02:00:00Z","lastUpdated":"2021-03-23T08:36:49Z"}},{"type":"Feature","geometry":{"type":"Point","coordinates":[673340.0600015296,4612442.499998018]},"properties":{"id":"6506","title":"Campo Municipal de Fútbol Delicias","tipoEquipamiento":["campos-de-futbol"],"email":"presidente@cddelicias.es","telephone":"976914008","url":"http://www.cddelicias.es","titularidadPublica":"true","streetAddress":"C/ Monasterio Nuestra Señora de los Ángeles, 9","postalCode":"50012","portalId":"50","latitud":41.643027972220416,"longitud":-0.9199133106588845,"distritoId":"Delicias","description":"<p>&nbsp;Entidad Gestora: U.D. Delicias</p>","creationDate":"2012-05-24T02:00:00Z","lastUpdated":"2021-03-23T08:36:49Z"}},{"type":"Feature","geometry":{"type":"Point","coordinates":[676998.8100017094,4615534.499997748]},"properties":{"id":"2841","title":"Campo Municipal de Fútbol Picarral","tipoEquipamiento":["campos-de-futbol"],"email":"balsas@udbalsaspicarral.es","telephone":"976 511101","url":"http://www.udbalsaspicarral.es","titularidadPublica":"true","streetAddress":"Pº Alberto Casañal Shakery, 2","postalCode":"50015","portalId":"31193","latitud":41.67005527610092,"longitud":-0.8750940986919264,"distritoId":"El Rabal","description":"<p>Entidad gestora: U. D. Balsas Picarral.</p>","creationDate":"2012-05-24T02:00:00Z","lastUpdated":"2021-03-23T08:36:49Z"}},{"type":"Feature","geometry":{"type":"Point","coordinates":[675141.5600016168,4616164.999997885]},"properties":{"id":"2839","title":"Campo Municipal de Fútbol Actur","tipoEquipamiento":["campos-de-futbol"],"email":"acturpabloiglesias@gmail.com","telephone":"976 523856","url":"http://www.acturpabloiglesias.es","titularidadPublica":"true","streetAddress":"C/ Luis Legaz Lacambra, 46","postalCode":"50018","portalId":"20108","latitud":41.676140925172305,"longitud":-0.8972049548787379,"distritoId":"Actur - Rey Fernando","description":"<p>Entidad gestora: Club Deportivo Actur - Pablo Iglesias.</p>","creationDate":"2012-10-03T02:00:00Z","lastUpdated":"2021-03-23T08:36:49Z"}},{"type":"Feature","geometry":{"type":"Point","coordinates":[675575.3100016386,4617844.499997846]},"properties":{"id":"2826","title":"Campo Municipal de Fútbol Juslibol","tipoEquipamiento":["campos-de-futbol"],"email":"javiboro72@hotmail.com","telephone":"976 513676","titularidadPublica":"true","streetAddress":"C/ Castellar, s/n","postalCode":"50191","portalId":"28313","latitud":41.69116264220487,"longitud":-0.8915034666544541,"distritoId":"Juslibol","description":"<p>Entidad gestora: C.D. Ajax Juslibol.</p>","creationDate":"2012-05-24T02:00:00Z","lastUpdated":"2021-03-23T08:36:49Z"}},{"type":"Feature","geometry":{"type":"Point","coordinates":[680896.8800019196,4618745.499997422]},"properties":{"id":"2825","title":"Campo Municipal de Fútbol Gran Capitán","tipoEquipamiento":["campos-de-futbol"],"email":"jgiranzo@gmail.com","telephone":"976 576500","titularidadPublica":"true","streetAddress":"Camino Torre de los Ajos, 29","postalCode":"50059","portalId":"1973","latitud":41.698080751663056,"longitud":-0.8273274957812538,"distritoId":"Montañana","description":"<p>Entidad gestora: A. D. Monta&ntilde;ana.</p>","creationDate":"2012-05-24T02:00:00Z","lastUpdated":"2021-03-23T08:36:49Z"}},{"type":"Feature","geometry":{"type":"Point","coordinates":[680415.0000018931,4619876.999997459]},"properties":{"id":"2824","title":"Campo Municipal de Fútbol El Gállego","tipoEquipamiento":["campos-de-futbol"],"email":"anvevi1978@hotmail.com","telephone":"976 150397","titularidadPublica":"true","streetAddress":"Ctra. de Cogullada, 246","postalCode":"50820","portalId":"18524","latitud":41.70837436674654,"longitud":-0.832772305054886,"distritoId":"San Juan Mozarrifar","description":"<p>Entidad gestora: A. D. San Juan.</p>","creationDate":"2012-05-24T02:00:00Z","lastUpdated":"2021-03-23T08:36:49Z"}},{"type":"Feature","geometry":{"type":"Point","coordinates":[677339.6300017255,4611492.999997733]},"properties":{"id":"3028","title":"Campo Municipal de Fútbol San José","tipoEquipamiento":["campos-de-futbol"],"email":"ud_sanjose@terra.es","telephone":"976 316 103","url":"http://udsanjose.es/","titularidadPublica":"true","streetAddress":"Camino de Miraflores, 15 dplo","postalCode":"50007","portalId":"11631","latitud":41.63360212926984,"longitud":-0.872201292950796,"distritoId":"San José","description":"<p>Entidad Gestora: U.D. San Jos&eacute;</p>","creationDate":"2012-05-24T02:00:00Z","lastUpdated":"2021-03-23T08:36:49Z"}}]}